{
  "type": "FeatureCollection",
  "features": [
    {
      "type": "Feature",
      "properties": {
        "norad_id": 39766,
        "name": "ALOS-2",
        "group": "resource",
        "lat": 34.34485280784107,
        "lon": -91.9252451713393,
        "alt_km": 628.1108635524124,
        "timestamp": "2025-12-13T18:50:04.085421+00:00",
        "meta_object_name": "ALOS-2",
        "meta_object_id": "2014-029A",
        "meta_epoch": "2025-12-12T12:57:47.930112",
        "meta_mean_motion": 14.79474197,
        "meta_eccentricity": 0.00014,
        "meta_inclination": 97.9217,
        "meta_ra_of_asc_node": 81.3886,
        "meta_arg_of_pericenter": 99.6977,
        "meta_mean_anomaly": 260.4393,
        "meta_ephemeris_type": 0,
        "meta_classification_type": "U",
        "meta_norad_cat_id": 39766,
        "meta_element_set_no": 999,
        "meta_rev_at_epoch": 62398,
        "meta_bstar": 0.00062702076,
        "meta_mean_motion_dot": 4.634e-05,
        "meta_mean_motion_ddot": 0,
        "tle_line1": "1 39766U 14029A   25346.54013808  .00004634  00000+0  62702-3 0  9992",
        "tle_line2": "2 39766  97.9217  81.3886 0001400  99.6977 260.4393 14.79474197623982"
      },
      "geometry": {
        "type": "Point",
        "coordinates": [
          -91.9252451713393,
          34.34485280784107
        ]
      }
    },
    {
      "type": "Feature",
      "properties": {
        "norad_id": 40010,
        "name": "KAZEOSAT 2",
        "group": "resource",
        "lat": 74.60708846608591,
        "lon": 163.24251893895058,
        "alt_km": 609.1461729574958,
        "timestamp": "2025-12-13T18:50:04.085453+00:00",
        "meta_object_name": "KAZEOSAT 2",
        "meta_object_id": "2014-033A",
        "meta_epoch": "2025-12-13T07:10:18.314112",
        "meta_mean_motion": 14.85168385,
        "meta_eccentricity": 0.0007673,
        "meta_inclination": 97.5508,
        "meta_ra_of_asc_node": 191.5845,
        "meta_arg_of_pericenter": 204.6798,
        "meta_mean_anomaly": 155.4051,
        "meta_ephemeris_type": 0,
        "meta_classification_type": "U",
        "meta_norad_cat_id": 40010,
        "meta_element_set_no": 999,
        "meta_rev_at_epoch": 62136,
        "meta_bstar": 9.5010297e-05,
        "meta_mean_motion_dot": 7.64e-06,
        "meta_mean_motion_ddot": 0,
        "tle_line1": "1 40010U 14033A   25347.29882308  .00000764  00000+0  95010-4 0  9992",
        "tle_line2": "2 40010  97.5508 191.5845 0007673 204.6798 155.4051 14.85168385621361"
      },
      "geometry": {
        "type": "Point",
        "coordinates": [
          163.24251893895058,
          74.60708846608591
        ]
      }
    },
    {
      "type": "Feature",
      "properties": {
        "norad_id": 40011,
        "name": "HODOYOSHI-4",
        "group": "resource",
        "lat": 6.830906779933147,
        "lon": -2.4737415904759206,
        "alt_km": 593.0176221378733,
        "timestamp": "2025-12-13T18:50:04.085465+00:00",
        "meta_object_name": "HODOYOSHI-4",
        "meta_object_id": "2014-033B",
        "meta_epoch": "2025-12-13T06:45:25.705728",
        "meta_mean_motion": 14.87484219,
        "meta_eccentricity": 0.00232914,
        "meta_inclination": 97.5416,
        "meta_ra_of_asc_node": 176.1387,
        "meta_arg_of_pericenter": 198.561,
        "meta_mean_anomaly": 161.476,
        "meta_ephemeris_type": 0,
        "meta_classification_type": "U",
        "meta_norad_cat_id": 40011,
        "meta_element_set_no": 999,
        "meta_rev_at_epoch": 62116,
        "meta_bstar": 0.00032995258,
        "meta_mean_motion_dot": 2.953e-05,
        "meta_mean_motion_ddot": 0,
        "tle_line1": "1 40011U 14033B   25347.28154752  .00002953  00000+0  32995-3 0  9991",
        "tle_line2": "2 40011  97.5416 176.1387 0023291 198.5610 161.4760 14.87484219621169"
      },
      "geometry": {
        "type": "Point",
        "coordinates": [
          -2.4737415904759206,
          6.830906779933147
        ]
      }
    },
    {
      "type": "Feature",
      "properties": {
        "norad_id": 40013,
        "name": "DEIMOS-2",
        "group": "resource",
        "lat": -9.084336741106444,
        "lon": -135.22536398948517,
        "alt_km": 593.0202240774233,
        "timestamp": "2025-12-13T18:50:04.085476+00:00",
        "meta_object_name": "DEIMOS-2",
        "meta_object_id": "2014-033D",
        "meta_epoch": "2025-12-13T06:00:25.919136",
        "meta_mean_motion": 14.9297326,
        "meta_eccentricity": 8.008e-05,
        "meta_inclination": 97.606,
        "meta_ra_of_asc_node": 223.0337,
        "meta_arg_of_pericenter": 104.4106,
        "meta_mean_anomaly": 255.7203,
        "meta_ephemeris_type": 0,
        "meta_classification_type": "U",
        "meta_norad_cat_id": 40013,
        "meta_element_set_no": 999,
        "meta_rev_at_epoch": 60997,
        "meta_bstar": 0.00020000571,
        "meta_mean_motion_dot": 2.023e-05,
        "meta_mean_motion_ddot": 0,
        "tle_line1": "1 40013U 14033D   25347.25029999  .00002023  00000+0  20001-3 0  9997",
        "tle_line2": "2 40013  97.6060 223.0337 0000800 104.4106 255.7203 14.92973260609970"
      },
      "geometry": {
        "type": "Point",
        "coordinates": [
          -135.22536398948517,
          -9.084336741106444
        ]
      }
    },
    {
      "type": "Feature",
      "properties": {
        "norad_id": 40015,
        "name": "HODOYOSHI-3",
        "group": "resource",
        "lat": 82.18904728626659,
        "lon": 76.1838382260175,
        "alt_km": 627.1115616261386,
        "timestamp": "2025-12-13T18:50:04.085487+00:00",
        "meta_object_name": "HODOYOSHI-3",
        "meta_object_id": "2014-033F",
        "meta_epoch": "2025-12-13T05:29:49.999488",
        "meta_mean_motion": 14.84810051,
        "meta_eccentricity": 0.00319176,
        "meta_inclination": 97.6197,
        "meta_ra_of_asc_node": 153.0427,
        "meta_arg_of_pericenter": 246.2655,
        "meta_mean_anomaly": 113.5211,
        "meta_ephemeris_type": 0,
        "meta_classification_type": "U",
        "meta_norad_cat_id": 40015,
        "meta_element_set_no": 999,
        "meta_rev_at_epoch": 62002,
        "meta_bstar": 0.00032179399,
        "meta_mean_motion_dot": 2.704e-05,
        "meta_mean_motion_ddot": 0,
        "tle_line1": "1 40015U 14033F   25347.22905092  .00002704  00000+0  32179-3 0  9998",
        "tle_line2": "2 40015  97.6197 153.0427 0031917 246.2655 113.5211 14.84810051620020"
      },
      "geometry": {
        "type": "Point",
        "coordinates": [
          76.1838382260175,
          82.18904728626659
        ]
      }
    },
    {
      "type": "Feature",
      "properties": {
        "norad_id": 40053,
        "name": "SPOT 7",
        "group": "resource",
        "lat": 77.74856030997569,
        "lon": 8.911779967351087,
        "alt_km": 682.3946749921179,
        "timestamp": "2025-12-13T18:50:04.085497+00:00",
        "meta_object_name": "SPOT 7",
        "meta_object_id": "2014-034A",
        "meta_epoch": "2025-12-13T06:57:29.708352",
        "meta_mean_motion": 14.60736219,
        "meta_eccentricity": 0.00015732,
        "meta_inclination": 98.0904,
        "meta_ra_of_asc_node": 49.3524,
        "meta_arg_of_pericenter": 87.7581,
        "meta_mean_anomaly": 272.38,
        "meta_ephemeris_type": 0,
        "meta_classification_type": "U",
        "meta_norad_cat_id": 40053,
        "meta_element_set_no": 999,
        "meta_rev_at_epoch": 60999,
        "meta_bstar": 0.00025255496,
        "meta_mean_motion_dot": 1.186e-05,
        "meta_mean_motion_ddot": 0,
        "tle_line1": "1 40053U 14034A   25347.28992718  .00001186  00000+0  25255-3 0  9998",
        "tle_line2": "2 40053  98.0904  49.3524 0001573  87.7581 272.3800 14.60736219609997"
      },
      "geometry": {
        "type": "Point",
        "coordinates": [
          8.911779967351087,
          77.74856030997569
        ]
      }
    },
    {
      "type": "Feature",
      "properties": {
        "norad_id": 40072,
        "name": "SKYSAT-B",
        "group": "resource",
        "lat": 63.03050622393114,
        "lon": 128.34506976112053,
        "alt_km": 596.4092488073729,
        "timestamp": "2025-12-13T18:50:04.085508+00:00",
        "meta_object_name": "SKYSAT-B",
        "meta_object_id": "2014-037D",
        "meta_epoch": "2025-12-13T07:00:50.205600",
        "meta_mean_motion": 14.87332026,
        "meta_eccentricity": 0.00061984,
        "meta_inclination": 98.3608,
        "meta_ra_of_asc_node": 291.0275,
        "meta_arg_of_pericenter": 148.4158,
        "meta_mean_anomaly": 211.743,
        "meta_ephemeris_type": 0,
        "meta_classification_type": "U",
        "meta_norad_cat_id": 40072,
        "meta_element_set_no": 999,
        "meta_rev_at_epoch": 61832,
        "meta_bstar": 0.00031173725,
        "meta_mean_motion_dot": 2.755e-05,
        "meta_mean_motion_ddot": 0,
        "tle_line1": "1 40072U 14037D   25347.29224775  .00002755  00000+0  31174-3 0  9994",
        "tle_line2": "2 40072  98.3608 291.0275 0006198 148.4158 211.7430 14.87332026618324"
      },
      "geometry": {
        "type": "Point",
        "coordinates": [
          128.34506976112053,
          63.03050622393114
        ]
      }
    }
  ]
}